[
    {
        "Altitude(m)": 611967.2089808327,
        "Argument of Periapsis(deg)": 0.0,
        "Eccentricity": 0.0,
        "Inclination(deg)": 60.0,
        "Latitude(deg)": 59.140252661576724,
        "Longitude(deg)": 121.09214172890742,
        "Mean Anomaly(deg)": 98.18179999999998,
        "RAAN(deg)": 114.99999999999999,
        "Satellite Name": "Test1 512",
        "Satellite Number": 512,
        "Semi-Major Axis(m)": 6980739.136638005,
        "Time(s)": 0
    },
    {
        "Altitude(m)": 611934.4085971904,
        "Argument of Periapsis(deg)": 0.00010418945913296404,
        "Eccentricity": 0.0,
        "Inclination(deg)": 60.0,
        "Latitude(deg)": 58.986613843616375,
        "Longitude(deg)": 122.21538989550565,
        "Mean Anomaly(deg)": 98.80190614546183,
        "RAAN(deg)": 114.99957995086024,
        "Satellite Name": "Test1 512",
        "Satellite Number": 512,
        "Semi-Major Axis(m)": 6980739.136638005,
        "Time(s)": 10
    }
]